[{"OBJECT_NAME":"FLOCK 4H-33","OBJECT_ID":"2025-276BY","EPOCH":"2026-03-09T18:09:06.535296","MEAN_MOTION":15.19689011,"ECCENTRICITY":9.559e-5,"INCLINATION":97.4288,"RA_OF_ASC_NODE":144.1705,"ARG_OF_PERICENTER":288.4074,"MEAN_ANOMALY":71.7057,"EPHEMERIS_TYPE":0,"CLASSIFICATION_TYPE":"U","NORAD_CAT_ID":66736,"ELEMENT_SET_NO":999,"REV_AT_EPOCH":1533,"BSTAR":0.00040674179,"MEAN_MOTION_DOT":8.618e-5,"MEAN_MOTION_DDOT":0},{"OBJECT_NAME":"CONNECTA IOT-14","OBJECT_ID":"2026-004AQ","EPOCH":"2026-03-09T22:44:46.185792","MEAN_MOTION":15.17901608,"ECCENTRICITY":0.00089335,"INCLINATION":97.4512,"RA_OF_ASC_NODE":69.4576,"ARG_OF_PERICENTER":336.151,"MEAN_ANOMALY":23.9308,"EPHEMERIS_TYPE":0,"CLASSIFICATION_TYPE":"U","NORAD_CAT_ID":67401,"ELEMENT_SET_NO":999,"REV_AT_EPOCH":870,"BSTAR":0.00024848153,"MEAN_MOTION_DOT":4.975e-5,"MEAN_MOTION_DDOT":0}]
